NAVSTAR 48 (USA 151)
1 26407U 00040A   20212.40866299 -.00000053  00000-0  00000+0 0  9992
2 26407  55.9623 300.4788 0186356 279.4913  88.3371  2.00564794146867
NAVSTAR 49 (USA 154)
1 26605U 00071A   20212.75796008 +.00000028 +00000-0 +00000-0 0  9996
2 26605 055.0362 179.7454 0117816 250.9967 285.0684 02.00563314144478
NAVSTAR 53 (USA 175)
1 28129U 03058A   20212.01016268 -.00000065 +00000-0 +00000-0 0  9991
2 28129 053.3638 110.1073 0070994 295.5099 063.7881 02.00551256121703
NAVSTAR 47 (USA 150)
1 26360U 00025A   20212.58832830 -.00000066  00000-0  00000+0 0  9990
2 26360  53.5534 107.3760 0052899 155.9603  19.4521  2.00564861148186
NAVSTAR 61 (USA 199)
1 32384U 07062A   20212.58051874 -.00000095  00000-0  00000+0 0  9994
2 32384  56.4664 359.1354 0014315 126.6958 176.1203  2.00552590 92496
NAVSTAR 68 (USA 242)
1 39166U 13023A   20211.30518862 -.00000090 +00000-0 +00000-0 0  9993
2 39166 056.0299 355.1370 0082006 031.9058 328.5906 02.00564570052788
NAVSTAR 43 (USA 132)
1 24876U 97035A   20212.81538863 +.00000034 +00000-0 +00000-0 0  9997
2 24876 055.4601 182.4612 0040900 058.4826 301.8900 02.00564854168886
NAVSTAR 60 (USA 196)
1 32260U 07047A   20212.34410359  .00000011  00000-0  00000+0 0  9998
2 32260  53.1944 169.0141 0123486  50.7740 310.2809  2.00557122 93751
NAVSTAR 74 (USA 262)
1 40730U 15033A   20212.83886053 -.00000100 +00000-0 +00000-0 0  9996
2 40730 055.5454 354.2281 0053887 354.2469 005.6894 02.00560787036942
NAVSTAR 75 (USA 265)
1 41019U 15062A   20211.89224042 -.00000060 +00000-0 +00000-0 0  9993
2 41019 055.3616 115.0225 0058474 210.3148 149.3696 02.00564197034746
NAVSTAR 67 (USA 239)
1 38833U 12053A   20212.94223963 +.00000078 +00000-0 +00000-0 0  9996
2 38833 053.6415 231.5376 0096935 037.2147 323.5077 02.00566496056482
NAVSTAR 57 (USA 183)
1 28874U 05038A   20212.44877206 -.00000095 +00000-0 +00000-0 0  9995
2 28874 056.3692 358.4604 0135083 266.0086 068.8293 02.00557041108751
NAVSTAR 54 (USA 177)
1 28190U 04009A   20212.53235605 -.00000094  00000-0  00000+0 0  9992
2 28190  56.2690   1.0658 0091719  96.4573 278.7453  2.00561608119905
NAVSTAR 59 (USA 192)
1 29601U 06052A   20211.04327264 -.00000055 +00000-0 +00000-0 0  9996
2 29601 056.0066 299.2408 0077429 066.2775 294.5757 02.00566175100304
NAVSTAR 72 (USA 258)
1 40294U 14068A   20209.54837469 -.00000036 +00000-0 +00000-0 0  9997
2 40294 055.3621 115.2881 0029438 042.9160 317.3416 02.00551157042071
NAVSTAR 78 (USA 293)
1 44506U 19056A   20212.26964014 -.00000061 +00000-0 +00000-0 0  9997
2 44506 055.2671 056.5205 0007432 166.0682 196.2067 02.00558644006994
NAVSTAR 70 (USA 251)
1 39741U 14026A   20211.58505331 -.00000059  00000-0  00000+0 0  9997
2 39741  56.1781  55.1427 0019810 295.2305  64.6265  2.00574345 45427
NAVSTAR 79 (USA 304)
1 45854U 20041A   20210.86132144 -.00000053 +00000-0 +10000-3 0  9990
2 45854 055.0727 113.8110 0006511 089.8394 270.2622 02.00568325000937
NAVSTAR 56 (USA 180)
1 28474U 04045A   20212.37740132 -.00000063  00000-0  00000+0 0  9991
2 28474  54.9993  51.1381 0199422 267.5262 272.9822  2.00555152115343
NAVSTAR 58 (USA 190)
1 29486U 06042A   20212.24322235  .00000081  00000-0  00000+0 0  9999
2 29486  54.8511 236.6680 0095336   6.6803 103.4034  2.00569368101461
NAVSTAR 71 (USA 256)
1 40105U 14045A   20212.17499574 +.00000026 +00000-0 +00000-0 0  9995
2 40105 054.5954 174.2436 0013687 103.6720 256.4513 02.00561853043020
NAVSTAR 73 (USA 260)
1 40534U 15013A   20212.17948033 -.00000040  00000-0  00000+0 0  9992
2 40534  54.1935 293.1106 0047568   9.4127 350.7293  2.00565670 39170
NAVSTAR 64 (USA 206)
1 35752U 09043A   20210.97433993 -.00000055 +00000-0 +00000-0 0  9991
2 35752 054.6129 113.3553 0058703 046.2672 134.9948 02.00559568080255
NAVSTAR 52 (USA 168)
1 27704U 03010A   20212.84999975 -.00000063  00000-0  00000+0 0  9990
2 27704  54.6542  51.2263 0239889 285.0030  86.7841  2.00398706127036
NAVSTAR 62 (USA 201)
1 32711U 08012A   20212.26332348 +.00000081 +00000-0 +00000-0 0  9992
2 32711 054.5984 235.7606 0143017 224.5174 134.3841 02.00565913090690
NAVSTAR 51 (USA 166)
1 27663U 03005A   20212.96650769 -.00000050  00000-0  00000+0 0  9992
2 27663  56.0168 300.2451 0112995  35.5042 135.6560  2.00549062128233
NAVSTAR 66 (USA 232)
1 37753U 11036A   20212.70470156 -.00000057  00000-0  00000+0 0  9995
2 37753  56.2053  55.5714 0098942  45.5709 136.1497  2.00560333 66192
NAVSTAR 77 (USA 289)
1 43873U 18109A   20212.73535329  .00000023  00000-0  00000+0 0  9992
2 43873  55.0113 176.9952 0009142 218.7091 216.1373  2.00565836 11959
NAVSTAR 69 (USA 248)
1 39533U 14008A   20212.80229438  .00000075  00000-0  00000+0 0  9990
2 39533  53.7556 236.9825 0048485 201.0138 158.8475  2.00570118 47165
NAVSTAR 76 (USA 266)
1 41328U 16007A   20212.98376268 +.00000014 +00000-0 +00000-0 0  9993
2 41328 054.8298 174.7088 0042515 222.9290 136.7060 02.00555476032826
NAVSTAR 65 (USA 213)
1 36585U 10022A   20211.57723626 -.00000046  00000-0  00000+0 0  9996
2 36585  55.2798 295.2247 0088942  52.9523 307.9123  2.00553590 74491
